[{"OBJECT_NAME":"SAUDISAT 5B","OBJECT_ID":"2018-102C","EPOCH":"2026-03-09T22:59:17.457216","MEAN_MOTION":15.27248504,"ECCENTRICITY":0.00120577,"INCLINATION":97.3281,"RA_OF_ASC_NODE":135.3629,"ARG_OF_PERICENTER":124.0958,"MEAN_ANOMALY":236.1427,"EPHEMERIS_TYPE":0,"CLASSIFICATION_TYPE":"U","NORAD_CAT_ID":43833,"ELEMENT_SET_NO":999,"REV_AT_EPOCH":40064,"BSTAR":0.00024926623,"MEAN_MOTION_DOT":6.596e-5,"MEAN_MOTION_DDOT":0},{"OBJECT_NAME":"STARLINK-32901","OBJECT_ID":"2025-024S","EPOCH":"2026-03-09T09:43:06.939552","MEAN_MOTION":15.27595016,"ECCENTRICITY":8.273e-5,"INCLINATION":43.0014,"RA_OF_ASC_NODE":326.8612,"ARG_OF_PERICENTER":309.5419,"MEAN_ANOMALY":50.536,"EPHEMERIS_TYPE":0,"CLASSIFICATION_TYPE":"U","NORAD_CAT_ID":62895,"ELEMENT_SET_NO":999,"REV_AT_EPOCH":6222,"BSTAR":0.0011821364,"MEAN_MOTION_DOT":0.00032426,"MEAN_MOTION_DDOT":0}]
